[
  {
    "name": "KUIPER-00517",
    "noradId": "69600",
    "line1": "1 69600U 26140J   26181.83142952  .00061058  00000+0  15694-2 0  9992",
    "line2": "2 69600  51.8779 332.6590 0010133 237.3381 122.6630 15.38650489  3331"
  },
  {
    "name": "KUIPER-00520",
    "noradId": "69601",
    "line1": "1 69601U 26140K   26181.84461468  .00036429  00000+0  98741-3 0  9999",
    "line2": "2 69601  51.8826 332.7517 0005982 296.9827  63.0548 15.37279885  3339"
  },
  {
    "name": "KUIPER-00522",
    "noradId": "69602",
    "line1": "1 69602U 26140L   26181.82637883  .00039867  00000+0  10413-2 0  9992",
    "line2": "2 69602  51.8794 332.6277 0013763 210.1962 149.8234 15.38306932  3330"
  },
  {
    "name": "KUIPER-00528",
    "noradId": "69603",
    "line1": "1 69603U 26140M   26181.84590370  .00040321  00000+0  10965-2 0  9993",
    "line2": "2 69603  51.8794 332.7541 0004821 305.6839  54.3699 15.37136945  3333"
  },
  {
    "name": "KUIPER-00532",
    "noradId": "69604",
    "line1": "1 69604U 26140N   26181.78484367  .00055681  00000+0  15310-2 0  9999",
    "line2": "2 69604  51.8795 333.0952 0006951 337.0378  23.0296 15.36637094  3323"
  },
  {
    "name": "KUIPER-00533",
    "noradId": "69605",
    "line1": "1 69605U 26140P   26181.83744504  .00034992  00000+0  92649-3 0  9991",
    "line2": "2 69605  51.8793 332.6999 0007786 267.3730  92.6366 15.38011705  3330"
  },
  {
    "name": "KUIPER-00534",
    "noradId": "69606",
    "line1": "1 69606U 26140Q   26181.91668981  .00067781  00000+0  17521-2 0  9992",
    "line2": "2 69606  51.8827 332.1473 0013963 212.4600 311.2449 15.38384966  3044"
  },
  {
    "name": "KUIPER-00537",
    "noradId": "69607",
    "line1": "1 69607U 26140R   26181.85566763  .00037433  00000+0  10601-2 0  9994",
    "line2": "2 69607  51.8819 332.8231 0008673   0.2436 359.8553 15.35884051  3330"
  },
  {
    "name": "KUIPER-00538",
    "noradId": "69608",
    "line1": "1 69608U 26140S   26181.84295731  .00039640  00000+0  10686-2 0  9993",
    "line2": "2 69608  51.8812 332.7396 0005543 283.9311  76.1059 15.37412059  3337"
  },
  {
    "name": "KUIPER-00540",
    "noradId": "69609",
    "line1": "1 69609U 26140T   26181.91339771  .00029724  00000+0  81984-3 0  9997",
    "line2": "2 69609  51.8815 332.4609 0005859 328.5789  31.4847 15.36841117  3340"
  },
  {
    "name": "KUIPER-00541",
    "noradId": "69610",
    "line1": "1 69610U 26140U   26181.83820269  .00033257  00000+0  88139-3 0  9992",
    "line2": "2 69610  51.8824 332.7113 0007333 263.3383  96.6770 15.38011421  3336"
  },
  {
    "name": "KUIPER-00542",
    "noradId": "69611",
    "line1": "1 69611U 26140V   26181.83649276  .00035856  00000+0  94782-3 0  9998",
    "line2": "2 69611  51.8794 332.6944 0007669 245.5874 114.4313 15.38051777  3333"
  },
  {
    "name": "KUIPER-00543",
    "noradId": "69612",
    "line1": "1 69612U 26140W   26181.85114153  .00033288  00000+0  92585-3 0  9998",
    "line2": "2 69612  51.8791 332.7864 0007118 347.9467  12.1348 15.36515497  3331"
  },
  {
    "name": "KUIPER-00544",
    "noradId": "69613",
    "line1": "1 69613U 26140X   26181.83940295  .00035101  00000+0  93317-3 0  9991",
    "line2": "2 69613  51.8799 332.7127 0006429 263.7080  96.3175 15.37894491  3339"
  },
  {
    "name": "KUIPER-00546",
    "noradId": "69614",
    "line1": "1 69614U 26140Y   26181.82395878  .00036429  00000+0  94438-3 0  9991",
    "line2": "2 69614  51.8798 332.6128 0014247 207.7004 152.3226 15.38572409  3333"
  },
  {
    "name": "KUIPER-00547",
    "noradId": "69615",
    "line1": "1 69615U 26140Z   26181.91668981  .00066795  00000+0  17808-2 0  9994",
    "line2": "2 69615  51.8826 332.2475 0011177 233.4904 242.0788 15.37473947  1302"
  },
  {
    "name": "KUIPER-00549",
    "noradId": "69616",
    "line1": "1 69616U 26140AA  26181.78154917  .00045017  00000+0  12245-2 0  9993",
    "line2": "2 69616  51.8798 333.0721 0006612 322.4949  37.5576 15.37067751  3328"
  },
  {
    "name": "KUIPER-00550",
    "noradId": "69617",
    "line1": "1 69617U 26140AB  26181.85857074 -.00023188  00000+0 -66036-3 0  9991",
    "line2": "2 69617  51.8795 332.8381 0006789 358.8100   1.2869 15.35126706  3330"
  },
  {
    "name": "KUIPER-00551",
    "noradId": "69618",
    "line1": "1 69618U 26140AC  26181.91668981  .00067819  00000+0  17841-2 0  9992",
    "line2": "2 69618  51.8796 332.1947 0012526 224.7733 274.6986 15.37863198  1724"
  },
  {
    "name": "KUIPER-00554",
    "noradId": "69619",
    "line1": "1 69619U 26140AD  26181.91668981  .00066223  00000+0  17582-2 0  9993",
    "line2": "2 69619  51.8792 332.2318 0011490 233.8790 247.2837 15.37604011  3019"
  },
  {
    "name": "KUIPER-00555",
    "noradId": "69620",
    "line1": "1 69620U 26140AE  26181.91668981  .00067222  00000+0  17712-2 0  9990",
    "line2": "2 69620  51.8828 332.2138 0011941 226.9794 264.7975 15.37826832  2810"
  },
  {
    "name": "KUIPER-00556",
    "noradId": "69621",
    "line1": "1 69621U 26140AF  26181.82924693  .00043532  00000+0  11477-2 0  9996",
    "line2": "2 69621  51.8803 332.6478 0012134 210.5022 149.5261 15.37998466  3332"
  },
  {
    "name": "KUIPER-00557",
    "noradId": "69622",
    "line1": "1 69622U 26140AG  26181.91668981  .00066054  00000+0  17823-2 0  9997",
    "line2": "2 69622  51.8815 332.2561 0010198 241.6403 229.0953 15.37119392  2177"
  },
  {
    "name": "KUIPER-00560",
    "noradId": "69623",
    "line1": "1 69623U 26140AH  26181.89867964  .00033113  00000+0  86212-3 0  9996",
    "line2": "2 69623  51.8796 332.3597 0008581 246.8975 113.1108 15.38551139  3345"
  },
  {
    "name": "KUIPER-00561",
    "noradId": "69624",
    "line1": "1 69624U 26140AJ  26181.90001842  .00040668  00000+0  10625-2 0  9991",
    "line2": "2 69624  51.8831 332.3745 0007682 248.3062 111.7108 15.38352158  3340"
  },
  {
    "name": "KUIPER-00564",
    "noradId": "69625",
    "line1": "1 69625U 26140AK  26181.83243450  .00041265  00000+0  10661-2 0  9991",
    "line2": "2 69625  51.8818 332.6697 0008338 236.9411 123.0776 15.38684267  3330"
  },
  {
    "name": "KUIPER-00567",
    "noradId": "69626",
    "line1": "1 69626U 26140AL  26181.82765472  .00058475  00000+0  15264-2 0  9999",
    "line2": "2 69626  51.8795 332.6362 0013589 215.6896 144.3184 15.38154042  3331"
  },
  {
    "name": "KUIPER-00573",
    "noradId": "69627",
    "line1": "1 69627U 26140AM  26181.83493426  .00047871  00000+0  12905-2 0  9995",
    "line2": "2 69627  51.8786 332.6826 0008751 226.5326 133.4933 15.37303008  3339"
  }
]