OBJECT_NAME,OBJECT_ID,EPOCH,MEAN_MOTION,ECCENTRICITY,INCLINATION,RA_OF_ASC_NODE,ARG_OF_PERICENTER,MEAN_ANOMALY,EPHEMERIS_TYPE,CLASSIFICATION_TYPE,NORAD_CAT_ID,ELEMENT_SET_NO,REV_AT_EPOCH,BSTAR,MEAN_MOTION_DOT,MEAN_MOTION_DDOT
KUIPER-00517,2026-140J,2026-06-30T19:57:15.510528,15.38650489,.00101339,51.8779,332.6590,237.3381,122.6630,0,U,69600,999,333,.15694212E-2,.61058E-3,0
KUIPER-00520,2026-140K,2026-06-30T20:16:14.708352,15.37279885,.0005982,51.8826,332.7517,296.9827,63.0548,0,U,69601,999,333,.98741188E-3,.36429E-3,0
KUIPER-00522,2026-140L,2026-06-30T19:49:59.130912,15.38306932,.0013763,51.8794,332.6277,210.1962,149.8234,0,U,69602,999,333,.10412642E-2,.39867E-3,0
KUIPER-00528,2026-140M,2026-06-30T20:18:06.079680,15.37136945,.00048217,51.8794,332.7541,305.6839,54.3699,0,U,69603,999,333,.10964565E-2,.40321E-3,0
KUIPER-00532,2026-140N,2026-06-30T18:50:10.493088,15.36637094,.00069518,51.8795,333.0952,337.0378,23.0296,0,U,69604,999,332,.15309828E-2,.55681E-3,0
KUIPER-00533,2026-140P,2026-06-30T20:05:55.251456,15.38011705,.00077861,51.8793,332.6999,267.3730,92.6366,0,U,69605,999,333,.92649378E-3,.34992E-3,0
KUIPER-00534,2026-140Q,2026-06-30T22:00:01.999584,15.38384966,.00139638,51.8827,332.1473,212.4600,311.2449,0,U,69606,999,304,.17520594E-2,.67781E-3,0
KUIPER-00537,2026-140R,2026-06-30T20:32:09.683232,15.35884051,.00086732,51.8819,332.8231,0.2436,359.8553,0,U,69607,999,333,.10601042E-2,.37433E-3,0
KUIPER-00538,2026-140S,2026-06-30T20:13:51.511584,15.37412059,.00055433,51.8812,332.7396,283.9311,76.1059,0,U,69608,999,333,.10685834E-2,.3964E-3,0
KUIPER-00540,2026-140T,2026-06-30T21:55:17.562144,15.36841117,.00058592,51.8815,332.4609,328.5789,31.4847,0,U,69609,999,334,.81984139E-3,.29724E-3,0
KUIPER-00541,2026-140U,2026-06-30T20:07:00.712416,15.38011421,.00073336,51.8824,332.7113,263.3383,96.6770,0,U,69610,999,333,.88138517E-3,.33257E-3,0
KUIPER-00542,2026-140V,2026-06-30T20:04:32.974464,15.38051777,.0007669,51.8794,332.6944,245.5874,114.4313,0,U,69611,999,333,.9478198E-3,.35856E-3,0
KUIPER-00543,2026-140W,2026-06-30T20:25:38.628192,15.36515497,.00071188,51.8791,332.7864,347.9467,12.1348,0,U,69612,999,333,.92584692E-3,.33288E-3,0
KUIPER-00544,2026-140X,2026-06-30T20:08:44.414880,15.37894491,.00064291,51.8799,332.7127,263.7080,96.3175,0,U,69613,999,333,.93317066E-3,.35101E-3,0
KUIPER-00546,2026-140Y,2026-06-30T19:46:30.038592,15.38572409,.00142474,51.8798,332.6128,207.7004,152.3226,0,U,69614,999,333,.94438183E-3,.36429E-3,0
KUIPER-00547,2026-140Z,2026-06-30T22:00:01.999584,15.37473947,.00111771,51.8826,332.2475,233.4904,242.0788,0,U,69615,999,130,.17808284E-2,.66795E-3,0
KUIPER-00549,2026-140AA,2026-06-30T18:45:25.848288,15.37067751,.00066128,51.8798,333.0721,322.4949,37.5576,0,U,69616,999,332,.12245483E-2,.45017E-3,0
KUIPER-00550,2026-140AB,2026-06-30T20:36:20.511936,15.35126706,.00067898,51.8795,332.8381,358.8100,1.2869,0,U,69617,999,333,-.66035625E-3,-.23188E-3,0
KUIPER-00551,2026-140AC,2026-06-30T22:00:01.999584,15.37863198,.00125263,51.8796,332.1947,224.7733,274.6986,0,U,69618,999,172,.17841371E-2,.67819E-3,0
KUIPER-00554,2026-140AD,2026-06-30T22:00:01.999584,15.37604011,.00114905,51.8792,332.2318,233.8790,247.2837,0,U,69619,999,301,.17581764E-2,.66223E-3,0
KUIPER-00555,2026-140AE,2026-06-30T22:00:01.999584,15.37826832,.00119413,51.8828,332.2138,226.9794,264.7975,0,U,69620,999,281,.17711791E-2,.67222E-3,0
KUIPER-00556,2026-140AF,2026-06-30T19:54:06.934752,15.37998466,.00121342,51.8803,332.6478,210.5022,149.5261,0,U,69621,999,333,.11477103E-2,.43532E-3,0
KUIPER-00557,2026-140AG,2026-06-30T22:00:01.999584,15.37119392,.00101981,51.8815,332.2561,241.6403,229.0953,0,U,69622,999,217,.17822752E-2,.66054E-3,0
KUIPER-00560,2026-140AH,2026-06-30T21:34:05.920896,15.38551139,.00085819,51.8796,332.3597,246.8975,113.1108,0,U,69623,999,334,.86212109E-3,.33113E-3,0
KUIPER-00561,2026-140AJ,2026-06-30T21:36:01.591488,15.38352158,.0007682,51.8831,332.3745,248.3062,111.7108,0,U,69624,999,334,.10625321E-2,.40668E-3,0
KUIPER-00564,2026-140AK,2026-06-30T19:58:42.340800,15.38684267,.00083383,51.8818,332.6697,236.9411,123.0776,0,U,69625,999,333,.10661286E-2,.41265E-3,0
KUIPER-00567,2026-140AL,2026-06-30T19:51:49.367808,15.38154042,.00135893,51.8795,332.6362,215.6896,144.3184,0,U,69626,999,333,.15264393E-2,.58475E-3,0
KUIPER-00573,2026-140AM,2026-06-30T20:02:18.320064,15.37303008,.00087518,51.8786,332.6826,226.5326,133.4933,0,U,69627,999,333,.12905185E-2,.47871E-3,0
